{
  "type": "FeatureCollection",
  "features": [
    {
      "type": "Feature",
      "properties": {
        "norad_id": 38857,
        "name": "GSAT0103 (GALILEO-FM3)",
        "group": "gnss",
        "lat": -14.354440590380028,
        "lon": -63.033398802129845,
        "alt_km": 23222.00355894974,
        "timestamp": "2025-12-03T06:58:43.478187+00:00",
        "meta_object_name": "GSAT0103 (GALILEO-FM3)",
        "meta_object_id": "2012-055A",
        "meta_epoch": "2025-12-01T05:01:21.613152",
        "meta_mean_motion": 1.70473256,
        "meta_eccentricity": 0.00023005,
        "meta_inclination": 55.6823,
        "meta_ra_of_asc_node": 106.9832,
        "meta_arg_of_pericenter": 267.1494,
        "meta_mean_anomaly": 92.7944,
        "meta_ephemeris_type": 0,
        "meta_classification_type": "U",
        "meta_norad_cat_id": 38857,
        "meta_element_set_no": 999,
        "meta_rev_at_epoch": 8163,
        "meta_bstar": 0,
        "meta_mean_motion_dot": 4.2e-07,
        "meta_mean_motion_ddot": 0,
        "tle_line1": "1 38857U 12055A   25335.20927793  .00000042  00000+0  00000+0 0  9995",
        "tle_line2": "2 38857  55.6823 106.9832 0002300 267.1494  92.7944  1.70473256 81637"
      },
      "geometry": {
        "type": "Point",
        "coordinates": [
          -63.033398802129845,
          -14.354440590380028
        ]
      }
    },
    {
      "type": "Feature",
      "properties": {
        "norad_id": 38953,
        "name": "BEIDOU-2 G6 (C02)",
        "group": "gnss",
        "lat": -0.3934675660702126,
        "lon": -98.99866807124198,
        "alt_km": 35794.46648950817,
        "timestamp": "2025-12-03T06:58:43.478201+00:00",
        "meta_object_name": "BEIDOU-2 G6 (C02)",
        "meta_object_id": "2012-059A",
        "meta_epoch": "2025-12-02T20:24:49.178880",
        "meta_mean_motion": 1.00270808,
        "meta_eccentricity": 0.0007304,
        "meta_inclination": 3.922,
        "meta_ra_of_asc_node": 75.5993,
        "meta_arg_of_pericenter": 290.3343,
        "meta_mean_anomaly": 96.2715,
        "meta_ephemeris_type": 0,
        "meta_classification_type": "U",
        "meta_norad_cat_id": 38953,
        "meta_element_set_no": 999,
        "meta_rev_at_epoch": 4794,
        "meta_bstar": 0,
        "meta_mean_motion_dot": -1.57e-06,
        "meta_mean_motion_ddot": 0,
        "tle_line1": "1 38953U 12059A   25336.85056920 -.00000157  00000+0  00000+0 0  9991",
        "tle_line2": "2 38953   3.9220  75.5993 0007304 290.3343  96.2715  1.00270808 47942"
      },
      "geometry": {
        "type": "Point",
        "coordinates": [
          -98.99866807124198,
          -0.3934675660702126
        ]
      }
    },
    {
      "type": "Feature",
      "properties": {
        "norad_id": 38977,
        "name": "LUCH 5B (SDCM/PRN 125)",
        "group": "gnss",
        "lat": 9.516648735740258,
        "lon": 160.86052140871485,
        "alt_km": 35780.02139721775,
        "timestamp": "2025-12-03T06:58:43.478213+00:00",
        "meta_object_name": "LUCH 5B (SDCM/PRN 125)",
        "meta_object_id": "2012-061A",
        "meta_epoch": "2025-12-02T00:00:34.725024",
        "meta_mean_motion": 1.00269053,
        "meta_eccentricity": 0.00075983,
        "meta_inclination": 10.0566,
        "meta_ra_of_asc_node": 51.8026,
        "meta_arg_of_pericenter": 188.6335,
        "meta_mean_anomaly": 174.4538,
        "meta_ephemeris_type": 0,
        "meta_classification_type": "U",
        "meta_norad_cat_id": 38977,
        "meta_element_set_no": 999,
        "meta_rev_at_epoch": 4763,
        "meta_bstar": 0,
        "meta_mean_motion_dot": -1.23e-06,
        "meta_mean_motion_ddot": 0,
        "tle_line1": "1 38977U 12061A   25336.00040191 -.00000123  00000+0  00000+0 0  9993",
        "tle_line2": "2 38977  10.0566  51.8026 0007598 188.6335 174.4538  1.00269053 47637"
      },
      "geometry": {
        "type": "Point",
        "coordinates": [
          160.86052140871485,
          9.516648735740258
        ]
      }
    },
    {
      "type": "Feature",
      "properties": {
        "norad_id": 39155,
        "name": "COSMOS 2485 (747)",
        "group": "gnss",
        "lat": 41.79046647407005,
        "lon": 104.42593425619751,
        "alt_km": 19187.640590272684,
        "timestamp": "2025-12-03T06:58:43.478225+00:00",
        "meta_object_name": "COSMOS 2485 (747)",
        "meta_object_id": "2013-019A",
        "meta_epoch": "2025-12-02T06:58:21.505152",
        "meta_mean_motion": 2.13102877,
        "meta_eccentricity": 0.0024568,
        "meta_inclination": 65.3079,
        "meta_ra_of_asc_node": 80.2187,
        "meta_arg_of_pericenter": 229.0905,
        "meta_mean_anomaly": 130.6936,
        "meta_ephemeris_type": 0,
        "meta_classification_type": "U",
        "meta_norad_cat_id": 39155,
        "meta_element_set_no": 999,
        "meta_rev_at_epoch": 9808,
        "meta_bstar": 0,
        "meta_mean_motion_dot": -1.8e-07,
        "meta_mean_motion_ddot": 0,
        "tle_line1": "1 39155U 13019A   25336.29052668 -.00000018  00000+0  00000+0 0  9992",
        "tle_line2": "2 39155  65.3079  80.2187 0024568 229.0905 130.6936  2.13102877 98087"
      },
      "geometry": {
        "type": "Point",
        "coordinates": [
          104.42593425619751,
          41.79046647407005
        ]
      }
    },
    {
      "type": "Feature",
      "properties": {
        "norad_id": 39166,
        "name": "GPS BIIF-4  (PRN 27)",
        "group": "gnss",
        "lat": 28.58784068083998,
        "lon": -60.353261311945715,
        "alt_km": 19823.223493782425,
        "timestamp": "2025-12-03T06:58:43.478236+00:00",
        "meta_object_name": "GPS BIIF-4  (PRN 27)",
        "meta_object_id": "2013-023A",
        "meta_epoch": "2025-12-01T17:54:55.988640",
        "meta_mean_motion": 2.00565053,
        "meta_eccentricity": 0.0137237,
        "meta_inclination": 54.6617,
        "meta_ra_of_asc_node": 277.0152,
        "meta_arg_of_pericenter": 48.4926,
        "meta_mean_anomaly": 312.6731,
        "meta_ephemeris_type": 0,
        "meta_classification_type": "U",
        "meta_norad_cat_id": 39166,
        "meta_element_set_no": 999,
        "meta_rev_at_epoch": 9192,
        "meta_bstar": 0,
        "meta_mean_motion_dot": -4e-07,
        "meta_mean_motion_ddot": 0,
        "tle_line1": "1 39166U 13023A   25335.74648135 -.00000040  00000+0  00000+0 0  9993",
        "tle_line2": "2 39166  54.6617 277.0152 0137237  48.4926 312.6731  2.00565053 91926"
      },
      "geometry": {
        "type": "Point",
        "coordinates": [
          -60.353261311945715,
          28.58784068083998
        ]
      }
    },
    {
      "type": "Feature",
      "properties": {
        "norad_id": 39199,
        "name": "IRNSS-1A",
        "group": "gnss",
        "lat": 8.313833184560833,
        "lon": -125.239373824238,
        "alt_km": 35696.96538862745,
        "timestamp": "2025-12-03T06:58:43.478247+00:00",
        "meta_object_name": "IRNSS-1A",
        "meta_object_id": "2013-034A",
        "meta_epoch": "2025-12-02T19:49:26.431104",
        "meta_mean_motion": 1.00279053,
        "meta_eccentricity": 0.0021661,
        "meta_inclination": 35.2852,
        "meta_ra_of_asc_node": 66.6964,
        "meta_arg_of_pericenter": 185.4058,
        "meta_mean_anomaly": 172.3398,
        "meta_ephemeris_type": 0,
        "meta_classification_type": "U",
        "meta_norad_cat_id": 39199,
        "meta_element_set_no": 999,
        "meta_rev_at_epoch": 4539,
        "meta_bstar": 0,
        "meta_mean_motion_dot": 6.5e-07,
        "meta_mean_motion_ddot": 0,
        "tle_line1": "1 39199U 13034A   25336.82600036  .00000065  00000+0  00000+0 0  9995",
        "tle_line2": "2 39199  35.2852  66.6964 0021661 185.4058 172.3398  1.00279053 45393"
      },
      "geometry": {
        "type": "Point",
        "coordinates": [
          -125.239373824238,
          8.313833184560833
        ]
      }
    },
    {
      "type": "Feature",
      "properties": {
        "norad_id": 39533,
        "name": "GPS BIIF-5  (PRN 30)",
        "group": "gnss",
        "lat": 30.05585930164635,
        "lon": -177.43869490886553,
        "alt_km": 20385.277262418393,
        "timestamp": "2025-12-03T06:58:43.478258+00:00",
        "meta_object_name": "GPS BIIF-5  (PRN 30)",
        "meta_object_id": "2014-008A",
        "meta_epoch": "2025-12-01T17:47:12.744672",
        "meta_mean_motion": 2.00573724,
        "meta_eccentricity": 0.00789385,
        "meta_inclination": 53.6295,
        "meta_ra_of_asc_node": 157.3734,
        "meta_arg_of_pericenter": 226.3523,
        "meta_mean_anomaly": 133.0366,
        "meta_ephemeris_type": 0,
        "meta_classification_type": "U",
        "meta_norad_cat_id": 39533,
        "meta_element_set_no": 999,
        "meta_rev_at_epoch": 8572,
        "meta_bstar": 0,
        "meta_mean_motion_dot": 1.22e-06,
        "meta_mean_motion_ddot": 0,
        "tle_line1": "1 39533U 14008A   25335.74111973  .00000122  00000+0  00000+0 0  9990",
        "tle_line2": "2 39533  53.6295 157.3734 0078938 226.3523 133.0366  2.00573724 85727"
      },
      "geometry": {
        "type": "Point",
        "coordinates": [
          -177.43869490886553,
          30.05585930164635
        ]
      }
    }
  ]
}